{"type": "FeatureCollection", "features": [ {"type": "Feature", "properties": {"norad_id": 66516, "name": "STARLINK-35924", "group": "last-30-days", "lat": 18.702794578162557, "lon": 85.61219403598889, "alt_km": 417.25728151845306, "timestamp": "2025-12-10T23:33:11.622445+00:00", "meta": {"OBJECT_NAME": "STARLINK-35924", "OBJECT_ID": "2025-265A", "EPOCH": "2025-12-10T14:00:03.000384", "MEAN_MOTION": 15.50025134, "ECCENTRICITY": 0.0001152, "INCLINATION": 42.9999, "RA_OF_ASC_NODE": 66.6342, "ARG_OF_PERICENTER": 267.7216, "MEAN_ANOMALY": 57.5582, "EPHEMERIS_TYPE": 0, "CLASSIFICATION_TYPE": "U", "NORAD_CAT_ID": 66516, "ELEMENT_SET_NO": 999, "REV_AT_EPOCH": 462, "BSTAR": -0.024395651, "MEAN_MOTION_DOT": -0.01271106, "MEAN_MOTION_DDOT": 0}, "tle": {"line1": "1 66516U 25265A   25344.58336806 -.01271106  00000+0 -24396-1 0  9995", "line2": "2 66516  42.9999  66.6342 0001152 267.7216  57.5582 15.50025134  4625"}}, "geometry": {"type": "Point", "coordinates": [85.61219403598889, 18.702794578162557]}}, {"type": "Feature", "properties": {"norad_id": 66517, "name": "STARLINK-35937", "group": "last-30-days", "lat": 20.944008389727514, "lon": 88.55260202557827, "alt_km": 412.26032025204404, "timestamp": "2025-12-10T23:33:11.622454+00:00", "meta": {"OBJECT_NAME": "STARLINK-35937", "OBJECT_ID": "2025-265B", "EPOCH": "2025-12-10T14:00:03.000384", "MEAN_MOTION": 15.50614033, "ECCENTRICITY": 0.000147, "INCLINATION": 42.9998, "RA_OF_ASC_NODE": 66.63, "ARG_OF_PERICENTER": 275.1332, "MEAN_ANOMALY": 52.1287, "EPHEMERIS_TYPE": 0, "CLASSIFICATION_TYPE": "U", "NORAD_CAT_ID": 66517, "ELEMENT_SET_NO": 999, "REV_AT_EPOCH": 464, "BSTAR": -0.0017436278, "MEAN_MOTION_DOT": -0.00101444, "MEAN_MOTION_DDOT": 0}, "tle": {"line1": "1 66517U 25265B   25344.58336806 -.00101444  00000+0 -17436-2 0  9990", "line2": "2 66517  42.9998  66.6300 0001470 275.1332  52.1287 15.50614033  4641"}}, "geometry": {"type": "Point", "coordinates": [88.55260202557827, 20.944008389727514]}}, {"type": "Feature", "properties": {"norad_id": 66518, "name": "STARLINK-35962", "group": "last-30-days", "lat": 22.131480155200933, "lon": 90.1734568298746, "alt_km": 412.08189122667955, "timestamp": "2025-12-10T23:33:11.622469+00:00", "meta": {"OBJECT_NAME": "STARLINK-35962", "OBJECT_ID": "2025-265C", "EPOCH": "2025-12-10T14:00:03.000384", "MEAN_MOTION": 15.50629011, "ECCENTRICITY": 0.00014631, "INCLINATION": 42.9997, "RA_OF_ASC_NODE": 66.6247, "ARG_OF_PERICENTER": 277.6845, "MEAN_ANOMALY": 51.4939, "EPHEMERIS_TYPE": 0, "CLASSIFICATION_TYPE": "U", "NORAD_CAT_ID": 66518, "ELEMENT_SET_NO": 999, "REV_AT_EPOCH": 464, "BSTAR": -0.0022416958, "MEAN_MOTION_DOT": -0.00129924, "MEAN_MOTION_DDOT": 0}, "tle": {"line1": "1 66518U 25265C   25344.58336806 -.00129924  00000+0 -22417-2 0  9999", "line2": "2 66518  42.9997  66.6247 0001463 277.6845  51.4939 15.50629011  4647"}}, "geometry": {"type": "Point", "coordinates": [90.1734568298746, 22.131480155200933]}}, {"type": "Feature", "properties": {"norad_id": 66519, "name": "STARLINK-35931", "group": "last-30-days", "lat": 23.301682033000926, "lon": 91.82101353956655, "alt_km": 412.0838586038253, "timestamp": "2025-12-10T23:33:11.622479+00:00", "meta": {"OBJECT_NAME": "STARLINK-35931", "OBJECT_ID": "2025-265D", "EPOCH": "2025-12-10T14:00:03.000384", "MEAN_MOTION": 15.50622907, "ECCENTRICITY": 0.00018692, "INCLINATION": 43.0001, "RA_OF_ASC_NODE": 66.6204, "ARG_OF_PERICENTER": 275.4026, "MEAN_ANOMALY": 55.695, "EPHEMERIS_TYPE": 0, "CLASSIFICATION_TYPE": "U", "NORAD_CAT_ID": 66519, "ELEMENT_SET_NO": 999, "REV_AT_EPOCH": 464, "BSTAR": -0.0020781455, "MEAN_MOTION_DOT": -0.00120591, "MEAN_MOTION_DDOT": 0}, "tle": {"line1": "1 66519U 25265D   25344.58336806 -.00120591  00000+0 -20781-2 0  9993", "line2": "2 66519  43.0001  66.6204 0001869 275.4026  55.6950 15.50622907  4642"}}, "geometry": {"type": "Point", "coordinates": [91.82101353956655, 23.301682033000926]}}, {"type": "Feature", "properties": {"norad_id": 66520, "name": "STARLINK-35952", "group": "last-30-days", "lat": 24.44829774656495, "lon": 93.48791638170519, "alt_km": 411.7014656878164, "timestamp": "2025-12-10T23:33:11.622488+00:00", "meta": {"OBJECT_NAME": "STARLINK-35952", "OBJECT_ID": "2025-265E", "EPOCH": "2025-12-10T14:00:03.000384", "MEAN_MOTION": 15.50619142, "ECCENTRICITY": 0.00014389, "INCLINATION": 42.9997, "RA_OF_ASC_NODE": 66.6144, "ARG_OF_PERICENTER": 280.9844, "MEAN_ANOMALY": 52.0286, "EPHEMERIS_TYPE": 0, "CLASSIFICATION_TYPE": "U", "NORAD_CAT_ID": 66520, "ELEMENT_SET_NO": 999, "REV_AT_EPOCH": 464, "BSTAR": -0.0019631328, "MEAN_MOTION_DOT": -0.00114011, "MEAN_MOTION_DDOT": 0}, "tle": {"line1": "1 66520U 25265E   25344.58336806 -.00114011  00000+0 -19631-2 0  9997", "line2": "2 66520  42.9997  66.6144 0001438 280.9844  52.0286 15.50619142  4640"}}, "geometry": {"type": "Point", "coordinates": [93.48791638170519, 24.44829774656495]}}, {"type": "Feature", "properties": {"norad_id": 66521, "name": "STARLINK-35915", "group": "last-30-days", "lat": 25.58013020500315, "lon": 95.19213567289285, "alt_km": 411.74325122473783, "timestamp": "2025-12-10T23:33:11.622527+00:00", "meta": {"OBJECT_NAME": "STARLINK-35915", "OBJECT_ID": "2025-265F", "EPOCH": "2025-12-10T14:00:03.000384", "MEAN_MOTION": 15.50611239, "ECCENTRICITY": 0.0001389, "INCLINATION": 42.9998, "RA_OF_ASC_NODE": 66.6097, "ARG_OF_PERICENTER": 266.041, "MEAN_ANOMALY": 68.897, "EPHEMERIS_TYPE": 0, "CLASSIFICATION_TYPE": "U", "NORAD_CAT_ID": 66521, "ELEMENT_SET_NO": 999, "REV_AT_EPOCH": 464, "BSTAR": -0.00179389, "MEAN_MOTION_DOT": -0.00104309, "MEAN_MOTION_DDOT": 0}, "tle": {"line1": "1 66521U 25265F   25344.58336806 -.00104309  00000+0 -17939-2 0  9996", "line2": "2 66521  42.9998  66.6097 0001389 266.0410  68.8970 15.50611239  4642"}}, "geometry": {"type": "Point", "coordinates": [95.19213567289285, 25.58013020500315]}}, {"type": "Feature", "properties": {"norad_id": 66522, "name": "STARLINK-35946", "group": "last-30-days", "lat": 26.694214143989726, "lon": 96.93384684030605, "alt_km": 411.48201282934224, "timestamp": "2025-12-10T23:33:11.622536+00:00", "meta": {"OBJECT_NAME": "STARLINK-35946", "OBJECT_ID": "2025-265G", "EPOCH": "2025-12-10T14:00:03.000384", "MEAN_MOTION": 15.50622048, "ECCENTRICITY": 0.00015433, "INCLINATION": 42.9997, "RA_OF_ASC_NODE": 66.606, "ARG_OF_PERICENTER": 277.4642, "MEAN_ANOMALY": 59.3821, "EPHEMERIS_TYPE": 0, "CLASSIFICATION_TYPE": "U", "NORAD_CAT_ID": 66522, "ELEMENT_SET_NO": 999, "REV_AT_EPOCH": 464, "BSTAR": -0.0019800847, "MEAN_MOTION_DOT": -0.00114991, "MEAN_MOTION_DDOT": 0}, "tle": {"line1": "1 66522U 25265G   25344.58336806 -.00114991  00000+0 -19801-2 0  9995", "line2": "2 66522  42.9997  66.6060 0001543 277.4642  59.3821 15.50622048  4647"}}, "geometry": {"type": "Point", "coordinates": [96.93384684030605, 26.694214143989726]}}, {"type": "Feature", "properties": {"norad_id": 66523, "name": "STARLINK-35969", "group": "last-30-days", "lat": 27.787025762700548, "lon": 98.70858778238491, "alt_km": 411.73687655750746, "timestamp": "2025-12-10T23:33:11.622545+00:00", "meta": {"OBJECT_NAME": "STARLINK-35969", "OBJECT_ID": "2025-265H", "EPOCH": "2025-12-10T14:00:03.000384", "MEAN_MOTION": 15.50664089, "ECCENTRICITY": 0.00019874, "INCLINATION": 43.0001, "RA_OF_ASC_NODE": 66.601, "ARG_OF_PERICENTER": 274.4097, "MEAN_ANOMALY": 64.3672, "EPHEMERIS_TYPE": 0, "CLASSIFICATION_TYPE": "U", "NORAD_CAT_ID": 66523, "ELEMENT_SET_NO": 999, "REV_AT_EPOCH": 464, "BSTAR": -0.0041679147, "MEAN_MOTION_DOT": -0.00238303, "MEAN_MOTION_DDOT": 0}, "tle": {"line1": "1 66523U 25265H   25344.58336806 -.00238303  00000+0 -41679-2 0  9998", "line2": "2 66523  43.0001  66.6010 0001987 274.4097  64.3672 15.50664089  4645"}}, "geometry": {"type": "Point", "coordinates": [98.70858778238491, 27.787025762700548]}}, {"type": "Feature", "properties": {"norad_id": 66524, "name": "STARLINK-35687", "group": "last-30-days", "lat": 28.71141209432228, "lon": 100.26840199913237, "alt_km": 412.5964182008338, "timestamp": "2025-12-10T23:33:11.622554+00:00", "meta": {"OBJECT_NAME": "STARLINK-35687", "OBJECT_ID": "2025-265J", "EPOCH": "2025-12-10T14:00:03.000384", "MEAN_MOTION": 15.50816653, "ECCENTRICITY": 0.00023791, "INCLINATION": 42.9997, "RA_OF_ASC_NODE": 66.5949, "ARG_OF_PERICENTER": 288.1809, "MEAN_ANOMALY": 52.4268, "EPHEMERIS_TYPE": 0, "CLASSIFICATION_TYPE": "U", "NORAD_CAT_ID": 66524, "ELEMENT_SET_NO": 999, "REV_AT_EPOCH": 464, "BSTAR": -0.016097973, "MEAN_MOTION_DOT": -0.00868035, "MEAN_MOTION_DDOT": 0}, "tle": {"line1": "1 66524U 25265J   25344.58336806 -.00868035  00000+0 -16098-1 0  9996", "line2": "2 66524  42.9997  66.5949 0002379 288.1809  52.4268 15.50816653  4642"}}, "geometry": {"type": "Point", "coordinates": [100.26840199913237, 28.71141209432228]}}, {"type": "Feature", "properties": {"norad_id": 66525, "name": "STARLINK-35975", "group": "last-30-days", "lat": 29.892711278685233, "lon": 102.35216562444722, "alt_km": 411.1076044190013, "timestamp": "2025-12-10T23:33:11.622563+00:00", "meta": {"OBJECT_NAME": "STARLINK-35975", "OBJECT_ID": "2025-265K", "EPOCH": "2025-12-10T14:00:03.000384", "MEAN_MOTION": 15.50620559, "ECCENTRICITY": 0.00014729, "INCLINATION": 42.9999, "RA_OF_ASC_NODE": 66.5906, "ARG_OF_PERICENTER": 272.3022, "MEAN_ANOMALY": 70.2991, "EPHEMERIS_TYPE": 0, "CLASSIFICATION_TYPE": "U", "NORAD_CAT_ID": 66525, "ELEMENT_SET_NO": 999, "REV_AT_EPOCH": 464, "BSTAR": -0.0020500907, "MEAN_MOTION_DOT": -0.00118977, "MEAN_MOTION_DDOT": 0}, "tle": {"line1": "1 66525U 25265K   25344.58336806 -.00118977  00000+0 -20501-2 0  9995", "line2": "2 66525  42.9999  66.5906 0001472 272.3022  70.2991 15.50620559  4642"}}, "geometry": {"type": "Point", "coordinates": [102.35216562444722, 29.892711278685233]}}]}